[{"OBJECT_NAME":"STARLINK-3052","OBJECT_ID":"2021-082AM","EPOCH":"2026-03-09T22:32:34.625760","MEAN_MOTION":14.98329484,"ECCENTRICITY":0.00024335,"INCLINATION":69.9986,"RA_OF_ASC_NODE":293.8413,"ARG_OF_PERICENTER":267.9124,"MEAN_ANOMALY":92.1757,"EPHEMERIS_TYPE":0,"CLASSIFICATION_TYPE":"U","NORAD_CAT_ID":49165,"ELEMENT_SET_NO":999,"REV_AT_EPOCH":24721,"BSTAR":-0.00014180098,"MEAN_MOTION_DOT":-1.784e-5,"MEAN_MOTION_DDOT":0},{"OBJECT_NAME":"CZ-2D DEB","OBJECT_ID":"2017-060D","EPOCH":"2026-03-09T09:20:51.218016","MEAN_MOTION":14.94784327,"ECCENTRICITY":0.00290231,"INCLINATION":98.2151,"RA_OF_ASC_NODE":220.4386,"ARG_OF_PERICENTER":85.7344,"MEAN_ANOMALY":274.7191,"EPHEMERIS_TYPE":0,"CLASSIFICATION_TYPE":"U","NORAD_CAT_ID":44611,"ELEMENT_SET_NO":999,"REV_AT_EPOCH":45223,"BSTAR":0.00060475076,"MEAN_MOTION_DOT":6.57e-5,"MEAN_MOTION_DDOT":0}]
